SAC-D
1 37673U 11024A   13352.44947940 +.00000000 +00000+0 +13644-4 6  9514
2 37673  98.0114 357.2489 0001695  77.4319 150.3103 14.72311951135175
